STARLINK-3875           
1 52483U 22049AJ  25227.77706772 -.00000050  00000+0  14916-4 0  9990
2 52483  53.2164 253.4995 0001208  87.6732 272.4398 15.08836003182545
STARLINK-3887           
1 52484U 22049AK  25227.81662918 -.00000117  00000+0  10743-4 0  9997
2 52484  53.2169 263.3221 0001240  88.3484 271.7650 15.08833784181175
STARLINK-3913           
1 52485U 22049AL  25227.76970472 -.00000566  00000+0 -17453-4 0  9993
2 52485  53.2162 253.5320 0001198  76.7659 283.3466 15.08836501181306
STARLINK-3918           
1 52486U 22049AM  25227.80926717 -.00000030  00000+0  16215-4 0  9992
2 52486  53.2166 263.3546 0001172  87.4837 272.6289 15.08834317181171
STARLINK-3902           
1 52487U 22049AN  25227.78076269 -.00000436  00000+0 -92886-5 0  9998
2 52487  53.2160 253.5879 0001073  86.0192 274.0922 15.08834894182547
STARLINK-3892           
1 52488U 22049AP  25227.80558727  .00000345  00000+0  39746-4 0  9998
2 52488  53.2165 263.3706 0001294  86.4907 273.6233 15.08835023181177
STARLINK-3923           
1 52489U 22049AQ  25227.81294865  .00000736  00000+0  64293-4 0  9999
2 52489  53.2167 263.3386 0001140  83.9116 276.2006 15.08839737181171
STARLINK-3914           
1 52490U 22049AR  25227.35754669 -.00000852  00000+0 -35477-4 0  9996
2 52490  53.2162 255.3839 0001200  86.1399 273.9730 15.08833254181241
STARLINK-3908           
1 52491U 22049AS  25227.76234946  .00000864  00000+0  72347-4 0  9991
2 52491  53.2162 253.5671 0001086  59.5759 300.5340 15.08845156181307
STARLINK-3916           
1 52492U 22049AT  25227.35020108 -.00000959  00000+0 -42162-4 0  9999
2 52492  53.2158 255.4184 0001667  62.4271 297.6890 15.08838723181241
STARLINK-3883           
1 52493U 22049AU  25227.89114380 -.00000352  00000+0 -40460-5 0  9992
2 52493  53.2164 252.9882 0001168  84.0237 276.0888 15.08837348181323
STARLINK-3857           
1 52494U 22049AV  25227.80282164 -.00000183  00000+0  66137-5 0  9990
2 52494  53.2163 253.3844 0001167  82.6847 277.4278 15.08844604181316
STARLINK-3871           
1 52496U 22049AX  25227.77200926 -.00000039  00000+0  15622-4 0  9996
2 52496  53.2166 248.5220 0001329  80.5321 279.5821 15.08833068181374
STARLINK-3884           
1 52497U 22049AY  25228.34010415  .00000301  00000+0  36971-4 0  9994
2 52497  53.2163 250.9725 0001214  80.3872 279.7257 15.08836915181550
STARLINK-3925           
1 52498U 22049AZ  25227.78534631 -.00000535  00000+0 -15506-4 0  9995
2 52498  53.2155 243.4628 0001063  80.7018 279.4094 15.08837287181446
STARLINK-3894           
1 52499U 22049BA  25227.80648701  .00003348  00000+0  22829-3 0  9991
2 52499  53.2163 253.3670 0001350  87.5429 272.5718 15.08847960181315
STARLINK-3866           
1 52500U 22049BB  25227.78166358 -.00000792  00000+0 -31700-4 0  9995
2 52500  53.2165 243.4789 0001343  85.9968 274.1178 15.08842116181443
STARLINK-3907           
1 52501U 22049BC  25227.78436739  .00003978  00000+0  26766-3 0  9991
2 52501  53.2163 253.2616 0001116  65.3094 294.8014 15.08867833181317
STARLINK-3912           
1 52502U 22049BD  25227.77798817  .00000543  00000+0  52220-4 0  9999
2 52502  53.2165 243.5237 0001246  86.1681 273.9453 15.08839004181446
STARLINK-3861           
1 52503U 22049BE  25227.76691953  .00001267  00000+0  97669-4 0  9992
2 52503  53.2161 243.4278 0001161  85.3618 274.7506 15.08847919181446
STARLINK-3952           
1 52534U 22051B   25227.50842511 -.00000470  00000+0 -11433-4 0  9991
2 52534  53.2162 334.7076 0001287  88.0102 272.1038 15.08837402180388
STARLINK-3958           
1 52535U 22051C   25227.57099122 -.00001951  00000+0 -10454-3 0  9997
2 52535  53.2185 334.4230 0000936  58.2679 301.8405 15.08844394180398
STARLINK-3964           
1 52536U 22051D   25227.56729350  .00001414  00000+0  10688-3 0  9991
2 52536  53.2200 334.4402 0001226  80.6562 279.4569 15.08853418180399
STARLINK-3897           
1 52537U 22051E   25227.67768785  .00000449  00000+0  46269-4 0  9991
2 52537  53.2172 333.7507 0001073  79.1491 280.9622 15.08833781180343
STARLINK-3933           
1 52538U 22051F   25227.55627343 -.00000898  00000+0 -38311-4 0  9992
2 52538  53.2208 334.4882 0001596 100.8090 259.3082 15.08830943180397
STARLINK-3757           
1 52539U 22051G   25227.55994991 -.00000567  00000+0 -17520-4 0  9991
2 52539  53.2192 334.4735 0001506  98.7929 261.3234 15.08835425180396
STARLINK-3940           
1 52540U 22051H   25227.68139163 -.00000116  00000+0  10812-4 0  9995
2 52540  53.2201 333.9686 0001466 102.5740 257.5416 15.08838110180346
STARLINK-3845           
1 52541U 22051J   25227.57972144 -.00000028  00000+0  16314-4 0  9993
2 52541  53.2194 339.3880 0001442  82.6437 277.4719 15.08841221180253
STARLINK-3937           
1 52542U 22051K   25227.67402363  .00000344  00000+0  39687-4 0  9994
2 52542  53.2172 333.9635 0001058  96.1033 264.0080 15.08839174180340
STARLINK-3926           
1 52543U 22051L   25227.48634993  .00000641  00000+0  58383-4 0  9994
2 52543  53.2192 334.8027 0001293  94.5325 265.5815 15.08833563180387
STARLINK-3944           
1 52544U 22051M   25227.50612376 -.00000630  00000+0 -21480-4 0  9997
2 52544  53.2194 339.7164 0001227 109.6740 250.4385 15.08844438180245
STARLINK-3948           
1 52546U 22051P   25227.57927060 -.00001017  00000+0 -45849-4 0  9990
2 52546  53.2187 334.1562 0001269  92.4624 267.6513 15.08840572180334
STARLINK-3931           
1 52548U 22051R   25227.58570438  .00000034  00000+0  20219-4 0  9996
2 52548  53.2184 334.3589 0001076  91.8388 268.2728 15.08834838180333
STARLINK-3935           
1 52549U 22051S   25227.60410839 -.00000100  00000+0  11790-4 0  9997
2 52549  53.2185 334.2760 0001446  87.4401 272.6757 15.08833716180338
STARLINK-3965           
1 52550U 22051T   25227.59306978 -.00000211  00000+0  48226-5 0  9993
2 52550  53.2188 334.3263 0001197  76.4636 283.6489 15.08833767180333
STARLINK-3969           
1 52551U 22051U   25227.73291244 -.00000402  00000+0 -71632-5 0  9999
2 52551  53.2182 333.6985 0001224  87.0248 273.0884 15.08831983180351
STARLINK-3966           
1 52552U 22051V   25228.25916449 -.00000199  00000+0  56029-5 0  9994
2 52552  53.2179 331.4921 0001230  84.5528 275.5604 15.08838222180501
STARLINK-3858           
1 52553U 22051W   25227.56358415 -.00000250  00000+0  24099-5 0  9991
2 52553  53.2184 334.1171 0001227  84.9685 275.1447 15.08841913180400
STARLINK-3770           
1 52554U 22051X   25227.70116714 -.00000764  00000+0 -29944-4 0  9996
2 52554  53.2174 338.8387 0001105  98.0863 262.0255 15.08837641180279
STARLINK-3949           
1 52555U 22051Y   25227.91668981  .00373307  64468-4  10797-2 0  9999
2 52555  53.2117 235.1893 0007293   7.8728 199.2755 15.92459564  6067
STARLINK-3763           
1 52556U 22051Z   25227.84284451  .00032118  00000+0  70469-3 0  9990
2 52556  53.1873 268.5861 0003087  48.0258 312.1012 15.43795106181284
STARLINK-3943           
1 52557U 22051AA  25227.57834869 -.00000706  00000+0 -26277-4 0  9994
2 52557  53.2196 334.3927 0001398  94.4778 265.6374 15.08836555180337
STARLINK-3953           
1 52559U 22051AC  25227.52408715  .00000286  00000+0  36074-4 0  9995
2 52559  53.2185 324.8169 0001195  79.0906 281.0220 15.08838861180521
STARLINK-3956           
1 52560U 22051AD  25227.57558796 -.00000354  00000+0 -41712-5 0  9991
2 52560  53.2190 324.4058 0001162  90.6284 269.4841 15.08836515180460
STARLINK-3955           
1 52561U 22051AE  25227.69012396  .00000841  00000+0  70897-4 0  9990
2 52561  53.2195 338.8896 0001088 103.1698 256.9416 15.08841416180275
STARLINK-3957           
1 52562U 22051AF  25227.56823362 -.00001080  00000+0 -49770-4 0  9994
2 52562  53.2184 324.4382 0001186  86.5232 273.5896 15.08832957180538
STARLINK-3942           
1 52563U 22051AG  25227.69381454 -.00000745  00000+0 -28741-4 0  9992
2 52563  53.2173 338.8722 0001588  76.3940 283.7229 15.08830813180276
STARLINK-3959           
1 52564U 22051AH  25227.75364729  .00007125  00000+0  46571-3 0  9993
2 52564  53.2184 338.6131 0001417  90.1715 269.9439 15.08806538180283
STARLINK-3911           
1 52565U 22051AJ  25227.50566942 -.00000150  00000+0  86837-5 0  9991
2 52565  53.2190 324.7206 0001237  84.2472 275.8661 15.08831556180454
STARLINK-3938           
1 52566U 22051AK  25227.59812407 -.00000483  00000+0 -12258-4 0  9996
2 52566  53.2199 339.3056 0001323  90.6609 269.4535 15.08836866180265
STARLINK-3929           
1 52567U 22051AL  25227.56454750 -.00000682  00000+0 -24773-4 0  9993
2 52567  53.2184 324.4557 0001289  87.3520 272.7619 15.08834591180530
STARLINK-3930           
1 52568U 22051AM  25227.55350742  .00000120  00000+0  25630-4 0  9997
2 52568  53.2189 324.5036 0001145  86.3477 273.7646 15.08834907180532
STARLINK-3927           
1 52569U 22051AN  25227.56086515  .00002275  00000+0  16105-3 0  9992
2 52569  53.2181 324.4711 0001244  93.8924 266.2210 15.08825885180465
STARLINK-3901           
1 52574U 22051AQ  25227.55718931 -.00001492  00000+0 -75696-4 0  9994
2 52574  53.2185 324.4855 0001273  93.3760 266.7378 15.08842654180530
STARLINK-3920           
1 52575U 22051AR  25227.91668981  .00066550  00000+0  19181-2 0  9993
2 52575  53.2163 319.5580 0001681  66.7141  58.6864 15.35135301  5872
STARLINK-3932           
1 52576U 22051AS  25227.67222324 -.00000322  00000+0 -21273-5 0  9999
2 52576  53.2183 323.9689 0001277  86.1879 273.9259 15.08838050180481
STARLINK-3836           
1 52577U 22051AT  25227.72324071 -.00001412  00000+0 -70631-4 0  9990
2 52577  53.2192 338.7412 0001333  80.4163 279.6980 15.08849655180281
STARLINK-3833           
1 52578U 22051AU  25227.72692940  .00000117  00000+0  25462-4 0  9995
2 52578  53.2195 338.7252 0001291  92.3430 267.7710 15.08835082180287
STARLINK-3893           
1 52579U 22051AV  25227.71588667 -.00000895  00000+0 -38176-4 0  9996
2 52579  53.2163 338.7777 0001165  86.5214 273.5911 15.08838873180289
